GSAT0103 (GALILEO-FM3)  
1 38857U 12055A   24176.80144993  .00000023  00000+0  00000+0 0  9995
2 38857  55.4102 121.3966 0005095 281.7183  78.1851  1.70473519 72698
GPS BIIF-4              
1 39166U 13023A   24175.74348023 -.00000036  00000+0  00000+0 0  9992
2 39166  55.1072 298.3181 0123824  44.9279 316.0763  2.00562718 81370
INSAT-3D                
1 39216U 13038B   24177.61602647 -.00000150  00000+0  00000+0 0  9994
2 39216   0.0603 100.9311 0000654 138.8040 338.3556  1.00271304 39841
GPS BIIF-5              
1 39533U 14008A   24177.73829946  .00000084  00000+0  00000+0 0  9995
2 39533  53.6010 178.7183 0073307 220.8269 138.6321  2.00568873 75212
LUCH 5V                 
1 39727U 14023A   24178.11945765 -.00000265  00000+0  00000+0 0  9990
2 39727   3.3184  75.9962 0002112  68.0923 268.3816  1.00272577555270
GPS BIIF-6              
1 39741U 14026A   24177.01841835 -.00000067  00000+0  00000+0 0  9990
2 39741  56.7101 359.5639 0030959 316.7538  43.0259  2.00567705 74056
GPS BIIF-7              
1 40105U 14045A   24178.10885459  .00000032  00000+0  00000+0 0  9999
2 40105  54.9346 117.2523 0025836 115.0459 245.2050  2.00566832 72507
GSAT0201 (GALILEO 5)    
1 40128U 14050A   24176.09433000 -.00000060  00000+0  00000+0 0  9999
2 40128  49.6531 302.7870 1611768 151.5215 218.3564  1.85519349 64905
GSAT0202 (GALILEO 6)    
1 40129U 14050B   24177.43057528 -.00000063  00000+0  00000+0 0  9999
2 40129  49.6686 301.8101 1610611 152.3749 217.2329  1.85519993 67096
GPS BIIF-8              
1 40294U 14068A   24176.98454687 -.00000041  00000+0  00000+0 0  9993
2 40294  56.4271  58.9359 0054144  62.4626 298.1481  2.00560214 70728
GLONASS-K 2             
1 40315U 14075A   24176.64141447  .00000079  00000+0  00000+0 0  9995
2 40315  63.6213 215.4170 0020891 210.9802 148.9776  2.13101430 74455
GPS BIIF-9              
1 40534U 15013A   24176.61689151  .00000048  00000+0  00000+0 0  9993
2 40534  53.3408 234.0899 0087851  29.7481 330.8395  2.00565012 67337
GSAT0203 (GALILEO 7)    
1 40544U 15017A   24177.12811761 -.00000070  00000+0  00000+0 0  9995
2 40544  56.9246   1.2511 0001479 250.4375 109.5685  1.70475887 56897
GSAT0204 (GALILEO 8)    
1 40545U 15017B   24174.44941985 -.00000066  00000+0  00000+0 0  9995
2 40545  56.9307   1.3392 0001498 215.5293 144.4899  1.70475605 19898
GPS BIIF-10             
1 40730U 15033A   24176.77869988 -.00000037  00000+0  00000+0 0  9997
2 40730  54.5894 296.7461 0094008  19.7429 340.6335  2.00566553 65501
METEOSAT-11 (MSG-4)     
1 40732U 15034A   24171.59020498  .00000087  00000+0  00000+0 0  9994
2 40732   1.3918  69.1738 0001876 153.3473 267.8398  1.00279855   552
GSAT0205 (GALILEO 9)    
1 40889U 15045A   24177.15055722  .00000043  00000+0  00000+0 0  9997
2 40889  55.2133 241.5507 0002471 348.1946  11.8951  1.70473622 54706
GSAT0206 (GALILEO 10)   
1 40890U 15045B   24177.37120973  .00000041  00000+0  00000+0 0  9992
2 40890  55.2121 241.5399 0001185 354.8460   5.2472  1.70473856 54737
GPS BIIF-11             
1 41019U 15062A   24177.83495284 -.00000045  00000+0  00000+0 0  9991
2 41019  56.4083  58.7558 0095302 224.9157 134.3679  2.00562389 63366
ELEKTRO-L 2             
1 41105U 15074A   24177.59675257 -.00000112  00000+0  00000+0 0  9998
2 41105   4.8625  79.3773 0000764 136.3454 258.8594  1.00270529 31277
GSAT0209 (GALILEO 12)   
1 41174U 15079A   24177.54084904  .00000024  00000+0  00000+0 0  9998
2 41174  55.4290 121.0856 0004974 318.5769  41.3504  1.70473855 52475
GSAT0208 (GALILEO 11)   
1 41175U 15079B   24176.00083823  .00000022  00000+0  00000+0 0  9996
2 41175  55.4273 121.1258 0004522 317.1162  42.8050  1.70473880 52868
GPS BIIF-12             
1 41328U 16007A   24177.91535990  .00000034  00000+0  00000+0 0  9999
2 41328  55.1295 118.1043 0079880 238.9297 120.2665  2.00561344 61416
GSAT0211 (GALILEO 14)   
1 41549U 16030A   24174.36400062  .00000052  00000+0  00000+0 0  9997
2 41549  55.3618 241.6348 0003035 304.1762  55.8964  1.70473780 50318
GSAT0210 (GALILEO 13)   
1 41550U 16030B   24176.41503105  .00000047  00000+0  00000+0 0  9993
2 41550  55.3603 241.5793 0002795 263.5194  96.5478  1.70473991 50345
INSAT-3DR               
1 41752U 16054A   24177.97271837 -.00000072  00000+0  00000+0 0  9998
2 41752   0.1244  93.4310 0010127 174.1296  71.2014  1.00271424 28560
GSAT0207 (GALILEO 15)   
1 41859U 16069A   24175.48812228  .00000021  00000+0  00000+0 0  9994
2 41859  55.0929 121.1419 0005210 305.5761  54.3292  1.70473849 47068
GSAT0212 (GALILEO 16)   
1 41860U 16069B   24174.16923395  .00000021  00000+0  00000+0 0  9998
2 41860  55.0904 121.1749 0003944 329.5111  30.4153  1.70474082 47292
GSAT0213 (GALILEO 17)   
1 41861U 16069C   24177.47064856  .00000023  00000+0  00000+0 0  9996
2 41861  55.0937 121.0899 0005007 288.9026  71.0076  1.70472673 47210
GSAT0214 (GALILEO 18)   
1 41862U 16069D   24177.02933593  .00000023  00000+0  00000+0 0  9991
2 41862  55.0923 121.0958 0004132 292.8671  67.0513  1.70474012 47333
GOES 16                 
1 41866U 16071A   24177.85604895 -.00000242  00000+0  00000+0 0  9993
2 41866   0.0813 253.2149 0000475 193.7569  60.4791  1.00271804 27875
GSAT-17                 
1 42815U 17040B   24177.83298299 -.00000252  00000+0  00000+0 0  9991
2 42815   0.0404 106.8152 0001202 170.6235  30.3594  1.00271688 25556
GSAT0215 (GALILEO 19)   
1 43055U 17079A   24176.34591963  .00000048  00000+0  00000+0 0  9991
2 43055  55.3380 241.4019 0003255 256.4641 103.5990  1.70474514 40663
GSAT0216 (GALILEO 20)   
1 43056U 17079B   24176.63761166  .00000046  00000+0  00000+0 0  9996
2 43056  55.3380 241.3939 0003459 265.3973  94.6613  1.70474788 40684
GSAT0217 (GALILEO 21)   
1 43057U 17079C   24175.09833589  .00000052  00000+0  00000+0 0  9992
2 43057  55.3365 241.4354 0006026 273.2970  86.7361  1.70474214 40640
GSAT0218 (GALILEO 22)   
1 43058U 17079D   24174.14523110  .00000052  00000+0  00000+0 0  9994
2 43058  55.3375 241.4587 0004792 265.6678  94.3785  1.70474611 40655
GOES 17                 
1 43226U 18022A   24178.17341244 -.00000086  00000+0  00000+0 0  9991
2 43226   0.0146 154.8060 0001004 335.1048 102.5938  1.00270899 23204
GSAT0221 (GALILEO 25)   
1 43564U 18060A   24176.97890468 -.00000069  00000+0  00000+0 0  9992
2 43564  57.3037   1.2573 0001962 298.8682  61.1344  1.70475735 36858
GSAT0222 (GALILEO 26)   
1 43565U 18060B   24177.78402340 -.00000071  00000+0  00000+0 0  9994
2 43565  57.3083   1.2376 0001558 218.4869 141.5230  1.70475465 36911
GSAT0219 (GALILEO 23)   
1 43566U 18060C   24176.24613900 -.00000068  00000+0  00000+0 0  9997
2 43566  57.3076   1.2809 0001496 328.1549  31.8601  1.70475770 36866
GSAT0220 (GALILEO 24)   
1 43567U 18060D   24177.63991721 -.00000071  00000+0  00000+0 0  9996
2 43567  57.3071   1.2437 0001492 313.9233  46.0855  1.70475407 36874
BEIDOU-3 M13            
1 43622U 18072A   24177.33255877 -.00000013  00000+0  00000+0 0  9999
2 43622  55.9988  86.6081 0006964 310.8053  49.1595  1.86231469 39215
BEIDOU-3 M14            
1 43623U 18072B   24177.19801383 -.00000013  00000+0  00000+0 0  9993
2 43623  56.0006  86.6057 0005424 340.2216  19.7822  1.86231495 39204
GPS BIII-1              
1 43873U 18109A   24178.23991736  .00000038  00000+0  00000+0 0  9995
2 43873  55.3006 120.6710 0029225 195.1224 290.5818  2.00556257 40567
METEOR-M2 2             
1 44387U 19038A   24178.14497714  .00000073  00000+0  51424-4 0  9995
2 44387  98.8270 147.4039 0000651   2.6606 357.4576 14.23896263258660
GPS BIII-2              
1 44506U 19056A   24176.70866289 -.00000069  00000+0  00000+0 0  9990
2 44506  55.8406 359.7864 0042936 188.0977 174.0163  2.00571680 35587
BEIDOU-3 M23            
1 44542U 19061A   24176.50116136  .00000084  00000+0  00000+0 0  9999
2 44542  54.4427 207.1115 0007655 341.9535  18.0898  1.86231253 32333
BEIDOU-3 M24            
1 44543U 19061B   24177.26418279  .00000080  00000+0  00000+0 0  9993
2 44543  54.4412 207.0546 0005360 320.2319 103.6662  1.86231538 32354
BEIDOU-3 M21            
1 44793U 19078A   24176.88390983 -.00000066  00000+0  00000+0 0  9991
2 44793  54.5576 325.0970 0005885  33.5508 326.4802  1.86232115 31195
BEIDOU-3 M22            
1 44794U 19078B   24177.01367947 -.00000066  00000+0  00000+0 0  9992
2 44794  54.5313 325.0684 0003707  32.3761 327.6407  1.86232564 31200
ELEKTRO-L 3             
1 44903U 19095A   24178.18726247 -.00000092  00000+0  00000+0 0  9993
2 44903   0.0644 180.5378 0000538 295.4646 302.2720  1.00270757 16462
GPS BIII-3              
1 45854U 20041A   24177.54702108 -.00000046  00000+0  00000+0 0  9990
2 45854  56.1290  57.0986 0043191 192.6563 349.6934  2.00558386 29563
COSMOS 2547             
1 46805U 20075A   24176.75151150  .00000078  00000+0  00000+0 0  9995
2 46805  64.5996 216.6209 0008804 241.2692 118.7246  2.13103034 28518
GPS BIII-4              
1 46826U 20078A   24177.45388825  .00000035  00000+0  00000+0 0  9993
2 46826  54.1769 240.0730 0046896 197.2684 256.4295  2.00560066 27036
GSAT0223 (GALILEO 27)   
1 49809U 21116A   24177.19702223 -.00000070  00000+0  00000+0 0  9994
2 49809  57.2976   1.1498 0001849 148.6591  29.9716  1.70475600 15872
GSAT0224 (GALILEO 28)   
1 49810U 21116B   24176.42896711 -.00000068  00000+0  00000+0 0  9994
2 49810  57.2987   1.1690 0001797 126.3618  53.4036  1.70475670 15880
GOES 18                 
1 51850U 22021A   24178.00952082  .00000102  00000+0  00000+0 0  9995
2 51850   0.0429 183.6425 0000539 292.4705  24.9261  1.00270707  8579
METEOR-M2 3             
1 57166U 23091A   24178.18018338  .00000038  00000+0  35825-4 0  9991
2 57166  98.7122 232.7731 0005145 101.9832 258.1924 14.23900712 51905
METEOR-M2 4             
1 59051U 24039A   24178.13979580  .00000055  00000+0  44178-4 0  9999
2 59051  98.5979 139.8127 0008258  97.1797 263.0321 14.22233995 16760
